{
  "links" : {
    "next" : "https://api.nasa.gov/neo/rest/v1/feed?start_date=2009-06-23&end_date=2009-06-23&detailed=true&api_key=t0TVs3DtDT2H8Oy2Zy8m2eVrNsAVKAexjcZXUckd",
    "prev" : "https://api.nasa.gov/neo/rest/v1/feed?start_date=2009-06-21&end_date=2009-06-21&detailed=true&api_key=t0TVs3DtDT2H8Oy2Zy8m2eVrNsAVKAexjcZXUckd",
    "self" : "https://api.nasa.gov/neo/rest/v1/feed?start_date=2009-06-22&end_date=2009-06-22&detailed=true&api_key=t0TVs3DtDT2H8Oy2Zy8m2eVrNsAVKAexjcZXUckd"
  },
  "element_count" : 6,
  "near_earth_objects" : {
    "2009-06-22" : [ {
      "links" : {
        "self" : "https://api.nasa.gov/neo/rest/v1/neo/3536565?api_key=t0TVs3DtDT2H8Oy2Zy8m2eVrNsAVKAexjcZXUckd"
      },
      "neo_reference_id" : "3536565",
      "name" : "(2010 NM)",
      "nasa_jpl_url" : "http://ssd.jpl.nasa.gov/sbdb.cgi?sstr=3536565",
      "absolute_magnitude_h" : 24.5,
      "estimated_diameter" : {
        "kilometers" : {
          "estimated_diameter_min" : 0.0334622374,
          "estimated_diameter_max" : 0.0748238376
        },
        "meters" : {
          "estimated_diameter_min" : 33.4622374455,
          "estimated_diameter_max" : 74.8238376074
        },
        "miles" : {
          "estimated_diameter_min" : 0.0207924639,
          "estimated_diameter_max" : 0.0464933628
        },
        "feet" : {
          "estimated_diameter_min" : 109.7842471007,
          "estimated_diameter_max" : 245.4850393757
        }
      },
      "is_potentially_hazardous_asteroid" : false,
      "close_approach_data" : [ {
        "close_approach_date" : "2009-06-22",
        "epoch_date_close_approach" : 1245654000000,
        "relative_velocity" : {
          "kilometers_per_second" : "8.4253620477",
          "kilometers_per_hour" : "30331.3033716312",
          "miles_per_hour" : "18846.6923644449"
        },
        "miss_distance" : {
          "astronomical" : "0.2052924602",
          "lunar" : "79.8587646484",
          "kilometers" : "30711316",
          "miles" : "19083126"
        },
        "orbiting_body" : "Earth"
      } ],
      "orbital_data" : {
        "orbit_id" : "8",
        "orbit_determination_date" : "2017-04-06 08:57:09",
        "orbit_uncertainty" : "7",
        "minimum_orbit_intersection" : ".0506822",
        "jupiter_tisserand_invariant" : "6.172",
        "epoch_osculation" : "2458000.5",
        "eccentricity" : ".1515093066333347",
        "semi_major_axis" : ".9723468310524899",
        "inclination" : "16.11294968443807",
        "ascending_node_longitude" : "105.091306901407",
        "orbital_period" : "350.2113617380462",
        "perihelion_distance" : ".8250272368726068",
        "perihelion_argument" : "318.5042435523145",
        "aphelion_distance" : "1.119666425232373",
        "perihelion_time" : "2457957.383638391615",
        "mean_anomaly" : "44.32149231819783",
        "mean_motion" : "1.027950658748974",
        "equinox" : "J2000"
      }
    }, {
      "links" : {
        "self" : "https://api.nasa.gov/neo/rest/v1/neo/2469737?api_key=t0TVs3DtDT2H8Oy2Zy8m2eVrNsAVKAexjcZXUckd"
      },
      "neo_reference_id" : "2469737",
      "name" : "469737 (2005 NW44)",
      "nasa_jpl_url" : "http://ssd.jpl.nasa.gov/sbdb.cgi?sstr=2469737",
      "absolute_magnitude_h" : 20.4,
      "estimated_diameter" : {
        "kilometers" : {
          "estimated_diameter_min" : 0.2210828104,
          "estimated_diameter_max" : 0.4943561926
        },
        "meters" : {
          "estimated_diameter_min" : 221.0828103591,
          "estimated_diameter_max" : 494.3561926196
        },
        "miles" : {
          "estimated_diameter_min" : 0.137374447,
          "estimated_diameter_max" : 0.3071786018
        },
        "feet" : {
          "estimated_diameter_min" : 725.3373275385,
          "estimated_diameter_max" : 1621.9035709942
        }
      },
      "is_potentially_hazardous_asteroid" : false,
      "close_approach_data" : [ {
        "close_approach_date" : "2009-06-22",
        "epoch_date_close_approach" : 1245654000000,
        "relative_velocity" : {
          "kilometers_per_second" : "21.8716410394",
          "kilometers_per_hour" : "78737.9077418936",
          "miles_per_hour" : "48924.6738410672"
        },
        "miss_distance" : {
          "astronomical" : "0.3214400277",
          "lunar" : "125.0401763916",
          "kilometers" : "48086748",
          "miles" : "29879718"
        },
        "orbiting_body" : "Earth"
      } ],
      "orbital_data" : {
        "orbit_id" : "56",
        "orbit_determination_date" : "2017-04-06 09:19:15",
        "orbit_uncertainty" : "0",
        "minimum_orbit_intersection" : ".0539712",
        "jupiter_tisserand_invariant" : "7.350",
        "epoch_osculation" : "2458000.5",
        "eccentricity" : ".4833444866273818",
        "semi_major_axis" : ".7793443512152165",
        "inclination" : "6.057246557704326",
        "ascending_node_longitude" : "114.4423845256922",
        "orbital_period" : "251.3000151466841",
        "perihelion_distance" : ".4026525558711477",
        "perihelion_argument" : ".7495086959431972",
        "aphelion_distance" : "1.156036146559285",
        "perihelion_time" : "2457958.897327115537",
        "mean_anomaly" : "59.5979360751912",
        "mean_motion" : "1.432550649827329",
        "equinox" : "J2000"
      }
    }, {
      "links" : {
        "self" : "https://api.nasa.gov/neo/rest/v1/neo/3753715?api_key=t0TVs3DtDT2H8Oy2Zy8m2eVrNsAVKAexjcZXUckd"
      },
      "neo_reference_id" : "3753715",
      "name" : "(2016 LE2)",
      "nasa_jpl_url" : "http://ssd.jpl.nasa.gov/sbdb.cgi?sstr=3753715",
      "absolute_magnitude_h" : 20.9,
      "estimated_diameter" : {
        "kilometers" : {
          "estimated_diameter_min" : 0.1756123185,
          "estimated_diameter_max" : 0.3926810818
        },
        "meters" : {
          "estimated_diameter_min" : 175.6123184804,
          "estimated_diameter_max" : 392.6810818086
        },
        "miles" : {
          "estimated_diameter_min" : 0.1091204019,
          "estimated_diameter_max" : 0.2440006365
        },
        "feet" : {
          "estimated_diameter_min" : 576.1559189633,
          "estimated_diameter_max" : 1288.3238004408
        }
      },
      "is_potentially_hazardous_asteroid" : false,
      "close_approach_data" : [ {
        "close_approach_date" : "2009-06-22",
        "epoch_date_close_approach" : 1245654000000,
        "relative_velocity" : {
          "kilometers_per_second" : "14.6248057131",
          "kilometers_per_hour" : "52649.3005670941",
          "miles_per_hour" : "32714.2278995925"
        },
        "miss_distance" : {
          "astronomical" : "0.4287237555",
          "lunar" : "166.7735443115",
          "kilometers" : "64136160",
          "miles" : "39852364"
        },
        "orbiting_body" : "Earth"
      } ],
      "orbital_data" : {
        "orbit_id" : "18",
        "orbit_determination_date" : "2017-04-06 08:25:34",
        "orbit_uncertainty" : "0",
        "minimum_orbit_intersection" : ".275138",
        "jupiter_tisserand_invariant" : "3.891",
        "epoch_osculation" : "2458000.5",
        "eccentricity" : ".401087098653565",
        "semi_major_axis" : "1.763013650652713",
        "inclination" : "28.20250120553864",
        "ascending_node_longitude" : "241.3447338147286",
        "orbital_period" : "855.0311545996973",
        "perihelion_distance" : "1.055891620625787",
        "perihelion_argument" : "105.0757802137238",
        "aphelion_distance" : "2.47013568067964",
        "perihelion_time" : "2457652.628662148626",
        "mean_anomaly" : "146.4668052769678",
        "mean_motion" : ".4210372897681633",
        "equinox" : "J2000"
      }
    } ]
  }
}